name,lat,lon,city,type,address,type_of_place,distance_from_company
Bar VIA,37.77927,-122.390797,San Francisco,"{'typepoint': {'type': 'Point', 'coordinates': [37.77927, -122.390797]}}","138 King St (btwn 2nd St & 3rd St), San Francisco, CA 94107",Bar,0.2601015509400217
Bravado Italian Coffee Bar and Lounge,37.778826,-122.391488,San Francisco,"{'typepoint': {'type': 'Point', 'coordinates': [37.778826, -122.391488]}}","170 King St (at 3rd St.), San Francisco, CA 94107",Bar,0.2924336440577366
California Wine Bar,37.778625,-122.390257,San Francisco,"{'typepoint': {'type': 'Point', 'coordinates': [37.778625, -122.390257]}}","101 King St, San Francisco, CA 94107",Bar,0.3392717585936984
Field Club Bar,37.77862,-122.389899,San Francisco,"{'typepoint': {'type': 'Point', 'coordinates': [37.77862, -122.389899]}}","24 Willie Mays Plz, San Francisco, CA 94107",Bar,0.3254911942064161
The Bar San Francisco,37.77888,-122.392495,San Francisco,"{'typepoint': {'type': 'Point', 'coordinates': [37.77888, -122.392495]}}","701 3rd St (Townsend), San Francisco, CA 94107",Bar,0.35925931132828387
Kaiyo Rooftop,37.778736,-122.39237,San Francisco,"{'typepoint': {'type': 'Point', 'coordinates': [37.778736, -122.39237]}}","701 3rd St, San Francisco, CA 94107",Bar,0.3811692701110446
Cable Car Bar,37.778403,-122.389312,San Francisco,"{'typepoint': {'type': 'Point', 'coordinates': [37.778403, -122.389312]}}","24 Willie Mays Plz (at AT&T Park), San Francisco, CA 94107",Bar,0.42665910601648654
Alchemist Bar & Lounge,37.779264,-122.393019,San Francisco,"{'typepoint': {'type': 'Point', 'coordinates': [37.779264, -122.393019]}}","679 3rd St (Townsend St), San Francisco, CA 94107",Bar,0.41416709135709157
The Ketel One Bar,37.778338,-122.388448,San Francisco,"{'typepoint': {'type': 'Point', 'coordinates': [37.778338, -122.388448]}}","24 Willie Mays Plz, San Francisco, CA 94107",Bar,0.4528711778861794
baR/GA,37.781649,-122.393446,San Francisco,"{'typepoint': {'type': 'Point', 'coordinates': [37.781649, -122.393446]}}","35 S Park St, San Francisco, CA 94107",Bar,0.45425537178351655
Champions Bar,37.776143,-122.389394,San Francisco,"{'typepoint': {'type': 'Point', 'coordinates': [37.776143, -122.389394]}}","100 Terry A Francois Blvd (3rd Street), San Francisco, CA 94158",Bar,0.5202314501719721
Hakashi Japanese Sushi Bar & Grill,37.78147,-122.396232,San Francisco,"{'typepoint': {'type': 'Point', 'coordinates': [37.78147, -122.396232]}}","474 3rd St, San Francisco, CA 94107",Bar,0.49220720522817496
Whispers Bar & Grill,37.786131,-122.396793,San Francisco,"{'typepoint': {'type': 'Point', 'coordinates': [37.786131, -122.396793]}}","299 2nd St (at Folsom), San Francisco, CA 94105",Bar,0.5560712374550706
Red's Java House,37.787229,-122.387383,San Francisco,"{'typepoint': {'type': 'Point', 'coordinates': [37.787229, -122.387383]}}","551 the Embarcadero (at Bryant St), San Francisco, CA 94105",Bar,0.5555393610851007
The Bar,37.770906,-122.390377,San Francisco,"{'typepoint': {'type': 'Point', 'coordinates': [37.770906, -122.390377]}}","601 Mission Bay Blvd N (4th Street), San Francisco, CA 94158",Bar,0.5609119268870348
B Restaurant & Bar,37.784487,-122.401643,San Francisco,"{'typepoint': {'type': 'Point', 'coordinates': [37.784487, -122.401643]}}","720 Howard St (btw 4th & 5th), San Francisco, CA 94103",Bar,0.5809798203796387
Natoma Cabana,37.787524,-122.398667,San Francisco,"{'typepoint': {'type': 'Point', 'coordinates': [37.787524, -122.398667]}}","90 Natoma St (at 2nd St), San Francisco, CA 94105",Bar,0.599131124399779
W6 Coffee Bar,37.790172,-122.389646,San Francisco,"{'typepoint': {'type': 'Point', 'coordinates': [37.790172, -122.389646]}}","345 Spear St (Folsom), San Francisco, CA 94105",Bar,0.6543024205902415
Novela,37.787133,-122.401225,San Francisco,"{'typepoint': {'type': 'Point', 'coordinates': [37.787133, -122.401225]}}","662 Mission St (at Annie St), San Francisco, CA 94105",Bar,0.760377589144292
InterContinental Bar,37.782009,-122.404579,San Francisco,"{'typepoint': {'type': 'Point', 'coordinates': [37.782009, -122.404579]}}","888 Howard St, San Francisco, CA 94103",Bar,0.7985543148420513
Mars Bar & Restaurant,37.773254,-122.4032,San Francisco,"{'typepoint': {'type': 'Point', 'coordinates': [37.773254, -122.4032]}}","798 Brannan St (at 7th St), San Francisco, CA 94103",Bar,0.8778590686474346
83 Proof,37.790083,-122.397671,San Francisco,"{'typepoint': {'type': 'Point', 'coordinates': [37.790083, -122.397671]}}","83 1st St (btwn Market & Mission), San Francisco, CA 94105",Bar,0.8730963384634406
The Lark Bar,37.787251,-122.403096,San Francisco,"{'typepoint': {'type': 'Point', 'coordinates': [37.787251, -122.403096]}}","29 3rd St (Market), San Francisco, CA 94103",Bar,0.8746502689510439
Kona's Street Market,37.787127,-122.403447,San Francisco,"{'typepoint': {'type': 'Point', 'coordinates': [37.787127, -122.403447]}}","32 3rd St, San Francisco, CA 94103",Bar,0.8451198042008647
Louie's Bar,37.789605,-122.39965,San Francisco,"{'typepoint': {'type': 'Point', 'coordinates': [37.789605, -122.39965]}}","55 Stevenson St (at 1st St), San Francisco, CA 94105",Bar,0.9392948894089623
Executive Order Bar & Lounge,37.78338,-122.405879,San Francisco,"{'typepoint': {'type': 'Point', 'coordinates': [37.78338, -122.405879]}}","868 Mission St, San Francisco, CA 94103",Bar,1.005970725387904
Executive Order Bar & Lounge,37.78338,-122.405879,San Francisco,"{'typepoint': {'type': 'Point', 'coordinates': [37.78338, -122.405879]}}","868 Mission St, San Francisco, CA 94103",Bar,1.0314692054020098
Pied Piper Bar & Grill,37.78826,-122.401865,San Francisco,"{'typepoint': {'type': 'Point', 'coordinates': [37.78826, -122.401865]}}","2 New Montgomery St, San Francisco, CA 94105",Bar,1.1003599616922186
Local Edition,37.787577,-122.403115,San Francisco,"{'typepoint': {'type': 'Point', 'coordinates': [37.787577, -122.403115]}}","691 Market St (at 3rd St), San Francisco, CA 94105",Bar,1.0063873940149983
MKT Restaurant and Bar,37.786416,-122.404624,San Francisco,"{'typepoint': {'type': 'Point', 'coordinates': [37.786416, -122.404624]}}","757 Market St (at Stevenson St), San Francisco, CA 94103",Bar,1.1678633966039107
Four Seasons Bar,37.786557,-122.404489,San Francisco,"{'typepoint': {'type': 'Point', 'coordinates': [37.786557, -122.404489]}}","757 Market St, San Francisco, CA 94103",Bar,1.2218806541110427
Iron Horse Coffee Bar,37.788238,-122.403871,San Francisco,"{'typepoint': {'type': 'Point', 'coordinates': [37.788238, -122.403871]}}","25 Maiden Ln, San Francisco, CA 94108",Bar,1.2545129856756652
Nespresso Boutique Bar,37.787576,-122.404836,San Francisco,"{'typepoint': {'type': 'Point', 'coordinates': [37.787576, -122.404836]}}","90 Grant Ave (at Geary St), San Francisco, CA 94108",Bar,1.3189588094948512
Hardwood Bar & Smokery,37.77043,-122.404757,San Francisco,"{'typepoint': {'type': 'Point', 'coordinates': [37.77043, -122.404757]}}","680 8th St (Brannan St.), San Francisco, CA 94103",Bar,1.3341986148364875
Coffee Bar,37.790309,-122.402416,San Francisco,"{'typepoint': {'type': 'Point', 'coordinates': [37.790309, -122.402416]}}","101 Montgomery St (at Sutter St), San Francisco, CA 94104",Bar,1.3443106976345713
Raven Bar,37.775665,-122.408936,San Francisco,"{'typepoint': {'type': 'Point', 'coordinates': [37.775665, -122.408936]}}","1151 Folsom St (btw 7th St. and 8th St.), San Francisco, CA 94103",Bar,1.3438601649453312
Wolfe's Espresso Bar,37.766377,-122.399644,San Francisco,"{'typepoint': {'type': 'Point', 'coordinates': [37.766377, -122.399644]}}","1220 16th St, San Francisco, CA 94107",Bar,1.3416908514709545
Mikkeller Bar,37.783829,-122.408988,San Francisco,"{'typepoint': {'type': 'Point', 'coordinates': [37.783829, -122.408988]}}","34 Mason St (at Market St), San Francisco, CA 94102",Bar,1.4008333785796525
Basil Thai Restaurant & Bar,37.775449,-122.40921,San Francisco,"{'typepoint': {'type': 'Point', 'coordinates': [37.775449, -122.40921]}}","1175 Folsom St (at Eighth), San Francisco, CA 94103",Bar,1.4040681927188057
The Irish Bank Bar and Restaurant,37.790411,-122.404931,San Francisco,"{'typepoint': {'type': 'Point', 'coordinates': [37.790411, -122.404931]}}","10 Mark Ln (at Harlan Pl.), San Francisco, CA 94108",Bar,1.4623302125182855
Bar Fluxus,37.790335,-122.40507,San Francisco,"{'typepoint': {'type': 'Point', 'coordinates': [37.790335, -122.40507]}}","18 Harlan Pl (Grant), San Francisco, CA 94108",Bar,1.4780853012116064
The Ramp Restaurant,37.764097,-122.387109,San Francisco,"{'typepoint': {'type': 'Point', 'coordinates': [37.764097, -122.387109]}}","855 Terry A Francois Blvd (at Illinois St), San Francisco, CA 94158",Bar,1.4801683909529917
Harborview Restaurant And Bar,37.795232,-122.39611,San Francisco,"{'typepoint': {'type': 'Point', 'coordinates': [37.795232, -122.39611]}}","4 Embarcadero Ctr, San Francisco, CA 94111",Bar,1.5158974062966377
Chai Bar By David Rio,37.781644,-122.410651,San Francisco,"{'typepoint': {'type': 'Point', 'coordinates': [37.781644, -122.410651]}}","1019 Market St (at 6th St), San Francisco, CA 94103",Bar,1.557876651186686
Royal Exchange,37.79412,-122.399128,San Francisco,"{'typepoint': {'type': 'Point', 'coordinates': [37.79412, -122.399128]}}","301 Sacramento St (at Front), San Francisco, CA 94111",Bar,1.5825130342284
The Bar Method San Francisco - Downtown,37.794896,-122.397094,San Francisco,"{'typepoint': {'type': 'Point', 'coordinates': [37.794896, -122.397094]}}","3 Embarcadero Ctr, San Francisco, CA 94111",Bar,1.6281201116035948
La Lucha Coffee Bar,37.765108,-122.399999,San Francisco,"{'typepoint': {'type': 'Point', 'coordinates': [37.765108, -122.399999]}}","1600 17th St, San Francisco, CA 94107",Bar,1.6101565122521642
Driftwood,37.774581,-122.410306,San Francisco,"{'typepoint': {'type': 'Point', 'coordinates': [37.774581, -122.410306]}}","1225 Folsom St (btwn 8th & 9th), San Francisco, CA 94103",Bar,1.641026814691832
Eno Wine Bar,37.787439,-122.408771,San Francisco,"{'typepoint': {'type': 'Point', 'coordinates': [37.787439, -122.408771]}}","320 Geary St, San Francisco, CA 94102",Bar,1.7150222631491998
Big Bar,37.783438,-122.410685,San Francisco,"{'typepoint': {'type': 'Point', 'coordinates': [37.783438, -122.410685]}}","98 Turk St (Taylor St), San Francisco, CA 94102",Bar,1.716961677368573
Rhythm Ethics Productions,37.778185,-122.393888,San Francisco,"{'typepoint': {'type': 'Point', 'coordinates': [37.778185, -122.393888]}}","Townsend Street, San Francisco, CA 94107",Night Club,0.28055522560381563
City Nights,37.782039,-122.397771,San Francisco,"{'typepoint': {'type': 'Point', 'coordinates': [37.782039, -122.397771]}}","715 Harrison St (3rd St), San Francisco, CA 94107",Night Club,5.2660332333601945
Temple Nightclub,37.787904,-122.397112,San Francisco,"{'typepoint': {'type': 'Point', 'coordinates': [37.787904, -122.397112]}}","540 Howard St (btwn 1st & 2nd St), San Francisco, CA 94105",Night Club,1.3039568696648622
Covered Wagon Saloon,37.77989,-122.403666,San Francisco,"{'typepoint': {'type': 'Point', 'coordinates': [37.77989, -122.403666]}}","917 Folsom St (at 5th), San Francisco, CA 94107",Night Club,1.3609337023756336
The Endup,37.777293,-122.403871,San Francisco,"{'typepoint': {'type': 'Point', 'coordinates': [37.777293, -122.403871]}}","401 6th St (at Harrison St), San Francisco, CA 94103",Night Club,1.5101108938865988
1015 Folsom,37.778128,-122.405784,San Francisco,"{'typepoint': {'type': 'Point', 'coordinates': [37.778128, -122.405784]}}","1015 Folsom St (at 6th St), San Francisco, CA 94103",Night Club,1.58281058714325
Monarch,37.780935,-122.408387,San Francisco,"{'typepoint': {'type': 'Point', 'coordinates': [37.780935, -122.408387]}}","101 6th St (at Mission St), San Francisco, CA 94103",Night Club,1.7532662656804554
Raven Bar,37.775665,-122.408936,San Francisco,"{'typepoint': {'type': 'Point', 'coordinates': [37.775665, -122.408936]}}","1151 Folsom St (btw 7th St. and 8th St.), San Francisco, CA 94103",Night Club,1.781797493036529
Club Six,37.781406,-122.40949,San Francisco,"{'typepoint': {'type': 'Point', 'coordinates': [37.781406, -122.40949]}}","60 6th St (btwn Market & Mission St), San Francisco, CA 94103",Night Club,2.014710283306289
Crazy Horse Gentlemen's Club,37.782842,-122.409933,San Francisco,"{'typepoint': {'type': 'Point', 'coordinates': [37.782842, -122.409933]}}","980 Market St, San Francisco, CA 94102",Night Club,2.0026363451737548
Cat Club,37.775367,-122.409851,San Francisco,"{'typepoint': {'type': 'Point', 'coordinates': [37.775367, -122.409851]}}","1190 Folsom St (at 8th St), San Francisco, CA 94103",Night Club,2.073714560693088
F8 1192 Folsom,37.775283,-122.409986,San Francisco,"{'typepoint': {'type': 'Point', 'coordinates': [37.775283, -122.409986]}}","1192 Folsom St (8th), San Francisco, CA 94103",Night Club,2.0589862463513087
Synergy's COSMO at Sens,37.794956,-122.395879,San Francisco,"{'typepoint': {'type': 'Point', 'coordinates': [37.794956, -122.395879]}}","4 Embarcadero Ctr, San Francisco, CA 94111",Night Club,2.1036103054597395
The Great Northern,37.767481,-122.40659,San Francisco,"{'typepoint': {'type': 'Point', 'coordinates': [37.767481, -122.40659]}}","119 Utah St (at 15th St), San Francisco, CA 94103",Night Club,2.1062407149526674
Cubcake,37.77212,-122.410878,San Francisco,"{'typepoint': {'type': 'Point', 'coordinates': [37.77212, -122.410878]}}","1354 Harrison St, San Francisco, CA 94103",Night Club,2.1358999745549974
Azul Club,37.774916,-122.412763,San Francisco,"{'typepoint': {'type': 'Point', 'coordinates': [37.774916, -122.412763]}}","201 9th St, San Francisco, CA 94103",Night Club,2.1590817707006633
Mission Fusion,37.763286,-122.401612,San Francisco,"{'typepoint': {'type': 'Point', 'coordinates': [37.763286, -122.401612]}}","500 De Haro St, San Francisco, CA 94107",Night Club,2.21243804994698
DNA Lounge,37.771002,-122.412675,San Francisco,"{'typepoint': {'type': 'Point', 'coordinates': [37.771002, -122.412675]}}","375 11th St (at Harrison St), San Francisco, CA 94103",Night Club,2.2230192514382168
Bootie San Francisco,37.771002,-122.412675,San Francisco,"{'typepoint': {'type': 'Point', 'coordinates': [37.771002, -122.412675]}}","375 11th St (at Harrison St), San Francisco, CA 94103",Night Club,2.2451090924095536
YOLO Night Club,37.771495,-122.413254,San Francisco,"{'typepoint': {'type': 'Point', 'coordinates': [37.771495, -122.413254]}}","333 11th St, San Francisco, CA 94103",Night Club,2.271040103006261
Halcyon,37.771424,-122.41399,San Francisco,"{'typepoint': {'type': 'Point', 'coordinates': [37.771424, -122.41399]}}","314 11th St (Folsom), San Francisco, CA 94103",Night Club,2.2823578481251294
Audio Nightclub,37.771462,-122.413921,San Francisco,"{'typepoint': {'type': 'Point', 'coordinates': [37.771462, -122.413921]}}","316 11th St (btwn Folsom & Harrison), San Francisco, CA 94103",Night Club,2.320268907232397
Kells Irish Restaurant & Pub,37.796482,-122.404142,San Francisco,"{'typepoint': {'type': 'Point', 'coordinates': [37.796482, -122.404142]}}","530 Jackson St (at Columbus Ave.), San Francisco, CA 94133",Night Club,2.3556172950425895
1516 Folsom,37.771912,-122.414449,San Francisco,"{'typepoint': {'type': 'Point', 'coordinates': [37.771912, -122.414449]}}","1516 Folsom St, San Francisco, CA 94103",Night Club,2.4207202059957407
The Holy COW,37.771442,-122.414439,San Francisco,"{'typepoint': {'type': 'Point', 'coordinates': [37.771442, -122.414439]}}","1535 Folsom St, San Francisco, CA 94103",Night Club,2.4593647583492095
House Nation,37.799106,-122.401429,San Francisco,"{'typepoint': {'type': 'Point', 'coordinates': [37.799106, -122.401429]}}","865 Battery St, San Francisco, CA 94111",Night Club,2.4919443229820915
Hue SF,37.797934,-122.404801,San Francisco,"{'typepoint': {'type': 'Point', 'coordinates': [37.797934, -122.404801]}}","447 Broadway, San Francisco, CA 94133",Night Club,2.60245684739621
Saw Entertainment,37.797451,-122.405562,San Francisco,"{'typepoint': {'type': 'Point', 'coordinates': [37.797451, -122.405562]}}","1031 Kearny St, San Francisco, CA 94133",Night Club,2.658352995364325
Monroe,37.79795,-122.405017,San Francisco,"{'typepoint': {'type': 'Point', 'coordinates': [37.79795, -122.405017]}}","473 Broadway, San Francisco, CA 94133",Night Club,2.9266501728409047
Garden Of Eden,37.797798,-122.406156,San Francisco,"{'typepoint': {'type': 'Point', 'coordinates': [37.797798, -122.406156]}}","529 Broadway, San Francisco, CA 94133",Night Club,2.9339351782063883
Jolene's Bar,37.765554,-122.413429,San Francisco,"{'typepoint': {'type': 'Point', 'coordinates': [37.765554, -122.413429]}}","2700 16th St, San Francisco, CA 94103",Night Club,3.225735381799538
The Motherlode,37.786675,-122.419622,San Francisco,"{'typepoint': {'type': 'Point', 'coordinates': [37.786675, -122.419622]}}","1081 Post St, San Francisco, CA 94109",Night Club,3.21542493739302
Inner Mission SF,37.761077,-122.410441,San Francisco,"{'typepoint': {'type': 'Point', 'coordinates': [37.761077, -122.410441]}}","2050 Bryant St (Between 18th & 19th), San Francisco, CA 94110",Night Club,3.614976262749837
1Six1,37.768956,-122.419363,San Francisco,"{'typepoint': {'type': 'Point', 'coordinates': [37.768956, -122.419363]}}","161 Erie St, San Francisco, CA 94103",Night Club,3.8437919863887293
Non Stop Bhangra,37.768956,-122.419363,San Francisco,"{'typepoint': {'type': 'Point', 'coordinates': [37.768956, -122.419363]}}","161 Erie St, San Francisco, CA 94103",Night Club,4.157414383916223
Public Works,37.768956,-122.419363,San Francisco,"{'typepoint': {'type': 'Point', 'coordinates': [37.768956, -122.419363]}}","161 Erie St (at Mission St), San Francisco, CA 94103",Night Club,4.15796954853175
Mezzanine,37.788983,-122.421049,San Francisco,"{'typepoint': {'type': 'Point', 'coordinates': [37.788983, -122.421049]}}","155 Austin St, San Francisco, CA 94109",Night Club,4.230891584462889
Calif Club of Calif,37.792479,-122.421901,San Francisco,"{'typepoint': {'type': 'Point', 'coordinates': [37.792479, -122.421901]}}","1750 Clay St, San Francisco, CA 94109",Night Club,4.230303804841533
Beauty Bar,37.760396,-122.41893,San Francisco,"{'typepoint': {'type': 'Point', 'coordinates': [37.760396, -122.41893]}}","2299 Mission St (at 19th St), San Francisco, CA 94110",Night Club,4.538629917813022
Danzhaus Aka The Gingerbread House,37.750074,-122.396176,San Francisco,"{'typepoint': {'type': 'Point', 'coordinates': [37.750074, -122.396176]}}","1275 Connecticut St (at Cesar Chavez St), San Francisco, CA 94107",Night Club,4.631129749116747
Rouge,37.796121,-122.422116,San Francisco,"{'typepoint': {'type': 'Point', 'coordinates': [37.796121, -122.422116]}}","1500 Broadway (at Polk), San Francisco, CA 94109",Night Club,4.619415355742686
Bionic,37.772545,-122.429251,San Francisco,"{'typepoint': {'type': 'Point', 'coordinates': [37.772545, -122.429251]}}","424 Haight St, San Francisco, CA 94117",Night Club,4.656598053038978
Arena SF,37.756097,-122.418317,San Francisco,"{'typepoint': {'type': 'Point', 'coordinates': [37.756097, -122.418317]}}","2565 Mission St, San Francisco, CA 94110",Night Club,4.70192277194321
Origin,37.783758,-122.432567,San Francisco,"{'typepoint': {'type': 'Point', 'coordinates': [37.783758, -122.432567]}}","1538 Fillmore St, San Francisco, CA 94115",Night Club,4.718735902116794
Club Cocomo,37.807351,-122.419625,San Francisco,"{'typepoint': {'type': 'Point', 'coordinates': [37.807351, -122.419625]}}","2801 Leavenworth St, San Francisco, CA 94133",Night Club,4.734494390610851
Madrone Art Bar,37.774201,-122.437403,San Francisco,"{'typepoint': {'type': 'Point', 'coordinates': [37.774201, -122.437403]}}","500 Divisadero St (at Fell St), San Francisco, CA 94117",Night Club,4.748578980605562
Beaux,37.763609,-122.434169,San Francisco,"{'typepoint': {'type': 'Point', 'coordinates': [37.763609, -122.434169]}}","2344 Market St (at Castro St), San Francisco, CA 94114",Night Club,4.773516537223102
Monte Carlo,37.765191,-122.435696,San Francisco,"{'typepoint': {'type': 'Point', 'coordinates': [37.765191, -122.435696]}}","228 Castro St (at Dana), San Francisco, CA 94114",Night Club,4.9826092141492015
Boy Bar,37.762807,-122.434408,San Francisco,"{'typepoint': {'type': 'Point', 'coordinates': [37.762807, -122.434408]}}","2369 Market St, San Francisco, CA 94114",Night Club,5.1086773530330385
Toad Hall,37.761006,-122.435735,San Francisco,"{'typepoint': {'type': 'Point', 'coordinates': [37.761006, -122.435735]}}","4146 18th St (btwn Castro & Collingwood), San Francisco, CA 94114",Night Club,5.229929367759966
Judith Baker Child Development Center,37.776862,-122.411659,San Francisco,"{'typepoint': {'type': 'Point', 'coordinates': [37.776862, -122.411659]}}","685 Natoma St (8th), San Francisco, CA 94103",Nursery School,0.6685357043933544
C5 Children's School,37.781001,-122.419072,San Francisco,"{'typepoint': {'type': 'Point', 'coordinates': [37.781001, -122.419072]}}","525 Golden Gate Ave (Larkin), San Francisco, CA 94102",Nursery School,0.7142769750292646
Friends of Potrero Hill,37.758465,-122.389544,San Francisco,"{'typepoint': {'type': 'Point', 'coordinates': [37.758465, -122.389544]}}","1060 Tennessee St, San Francisco, CA 94107",Nursery School,2.254975947993332
C5 Children's School,37.780887,-122.41928,San Francisco,"{'typepoint': {'type': 'Point', 'coordinates': [37.780887, -122.41928]}}","505 Van Ness Ave (McAllister), San Francisco, CA 94102",Nursery School,3.528323972461935
Sls School,37.792143,-122.422024,San Francisco,"{'typepoint': {'type': 'Point', 'coordinates': [37.792143, -122.422024]}}","1755 Clay St, San Francisco, CA 94109",Nursery School,3.735764343140914
Japanese YWCA Building / Nihonmachi Little Friends,37.786844,-122.428521,San Francisco,"{'typepoint': {'type': 'Point', 'coordinates': [37.786844, -122.428521]}}","1700 Sutter St (btwn Webster & Buchanan St), San Francisco, CA 94115",Nursery School,4.161132041444572
Theresa Mahler Early Education School,37.75515,-122.42815,San Francisco,"{'typepoint': {'type': 'Point', 'coordinates': [37.75515, -122.42815]}}","990 Church St, San Francisco, CA 94114",Nursery School,4.3950070740066325
Rocky Mountain Participation Nursery School,37.7661,-122.43833,San Francisco,"{'typepoint': {'type': 'Point', 'coordinates': [37.7661, -122.43833]}}","2475 15th St (beaver st), San Francisco, CA 94114",Nursery School,4.577518238346445
Tule Elk Park,37.799251,-122.43456,San Francisco,"{'typepoint': {'type': 'Point', 'coordinates': [37.799251, -122.43456]}}","2110 Greenwich St (Buchanan), San Francisco, CA 94123",Nursery School,4.831164365951562
San Francisco Waldorf Nursery School,37.788357,-122.444164,San Francisco,"{'typepoint': {'type': 'Point', 'coordinates': [37.788357, -122.444164]}}","3105 Sacramento St (Baker & Lyon), San Francisco, CA 94115",Nursery School,4.756965133227275
Neighborhood Play Garden,37.756997,-122.440728,San Francisco,"{'typepoint': {'type': 'Point', 'coordinates': [37.756997, -122.440728]}}","59 Grand View Ave, San Francisco, CA 94114",Nursery School,4.867779059862684
NOPA Montessori,37.773463,-122.451379,San Francisco,"{'typepoint': {'type': 'Point', 'coordinates': [37.773463, -122.451379]}}","2114 Hayes St, San Francisco, CA 94117",Nursery School,4.908694803265076
Laurel Hill Nursery School,37.783869,-122.452857,San Francisco,"{'typepoint': {'type': 'Point', 'coordinates': [37.783869, -122.452857]}}","401 Euclid Ave, San Francisco, CA 94118",Nursery School,5.112013180165419
Les Petits Canards French Immersion Preschool,37.7755,-122.453793,San Francisco,"{'typepoint': {'type': 'Point', 'coordinates': [37.7755, -122.453793]}}","2521A McAllister St (Stanyan), San Francisco, CA 94118",Nursery School,5.258201259500468
Noe Valley Nursery School,37.743845,-122.440092,San Francisco,"{'typepoint': {'type': 'Point', 'coordinates': [37.743845, -122.440092]}}","5210 Diamond Heights Blvd, San Francisco, CA 94131",Nursery School,5.960432335852734
Rosenberg Early Childhood Center of the Jccsf,37.784703,-122.459428,San Francisco,"{'typepoint': {'type': 'Point', 'coordinates': [37.784703, -122.459428]}}","325 Arguello Blvd (btwn Cornwall & Clement St), San Francisco, CA 94118",Nursery School,6.00407321434865
Presidio Early Education School,37.797795,-122.46078,San Francisco,"{'typepoint': {'type': 'Point', 'coordinates': [37.797795, -122.46078]}}","387 Moraga Ave, San Francisco, CA 94129",Nursery School,6.0813788268348565
Beth Sholom Pre-school,37.782171,-122.473251,San Francisco,"{'typepoint': {'type': 'Point', 'coordinates': [37.782171, -122.473251]}}","301 14th Ave (Clement), San Francisco, CA 94118",Nursery School,6.499056879502246
Argonne Early Education School,37.774025,-122.474271,San Francisco,"{'typepoint': {'type': 'Point', 'coordinates': [37.774025, -122.474271]}}","750 16th Ave, San Francisco, CA 94118",Nursery School,6.712314930323357
Jefferson School-Age Childrens Center,37.763129,-122.47663,San Francisco,"{'typepoint': {'type': 'Point', 'coordinates': [37.763129, -122.47663]}}","1325 18th Ave, San Francisco, CA 94122",Nursery School,6.931170243125848
JamaJaz Family Day Care,37.737228,-122.46248,San Francisco,"{'typepoint': {'type': 'Point', 'coordinates': [37.737228, -122.46248]}}","San Pablo Avenue (Yerba Buena), San Francisco, CA 94127",Nursery School,7.093711738933437
John Mc Laren Children's Center,37.713758,-122.423268,San Francisco,"{'typepoint': {'type': 'Point', 'coordinates': [37.713758, -122.423268]}}","2055 Sunnydale Ave, San Francisco, CA 94134",Nursery School,7.2932141583746315
Little Star Preschool Too,37.748401,-122.4774,San Francisco,"{'typepoint': {'type': 'Point', 'coordinates': [37.748401, -122.4774]}}","1105 Quintara St (20th Avenue), San Francisco, CA 94116",Nursery School,7.308288992809333
ABC Preschool,37.781127,-122.49318,San Francisco,"{'typepoint': {'type': 'Point', 'coordinates': [37.781127, -122.49318]}}","426 33rd Ave, San Francisco, CA 94121",Nursery School,7.574031037984983
Lincoln Child Center,37.810496,-122.288691,San Francisco,"{'typepoint': {'type': 'Point', 'coordinates': [37.810496, -122.288691]}}","1266 14th St (Poplar Street), Oakland, CA 94607",Nursery School,7.663203146533623
Children's Cottage Rising Star,37.773035,-122.273684,San Francisco,"{'typepoint': {'type': 'Point', 'coordinates': [37.773035, -122.273684]}}","770 Santa Clara Ave (btwn 8th & Page St), Alameda, CA 94501",Nursery School,7.989793429887745
Starlight Two Christian Preschool,37.737971,-122.500843,San Francisco,"{'typepoint': {'type': 'Point', 'coordinates': [37.737971, -122.500843]}}","3155 Vicente St, San Francisco, CA 94116",Nursery School,8.037194306429182
YMCA,37.812023,-122.275791,San Francisco,"{'typepoint': {'type': 'Point', 'coordinates': [37.812023, -122.275791]}}","756 21st St (at Brush), Oakland, CA 94612",Nursery School,8.307452543916506
Slippery Fish,37.714214,-122.483025,San Francisco,"{'typepoint': {'type': 'Point', 'coordinates': [37.714214, -122.483025]}}","999 Brotherhood Way, San Francisco, CA 94132",Nursery School,8.890310909731072
Aquatic Park Preschool,37.853092,-122.293025,San Francisco,"{'typepoint': {'type': 'Point', 'coordinates': [37.853092, -122.293025]}}","830 Heinz Ave, Berkeley, CA 94710",Nursery School,8.53400087849768
Belvedere Nursery School,37.875079,-122.460362,San Francisco,"{'typepoint': {'type': 'Point', 'coordinates': [37.875079, -122.460362]}}","15 Cove Road Pl, Belvedere, CA 94920",Nursery School,8.688068477924707
Luna's Montessori Bilingual School,37.761595,-122.244043,San Francisco,"{'typepoint': {'type': 'Point', 'coordinates': [37.761595, -122.244043]}}","1247 Park Ave (btwn Encinal & San Jose Ave), Alameda, CA 94501",Nursery School,8.642763810479382
Duck's Nest,37.87676,-122.302654,San Francisco,"{'typepoint': {'type': 'Point', 'coordinates': [37.87676, -122.302654]}}","1411 4th St, Berkeley, CA 94710",Nursery School,8.836716761841334
Golden Gate Kids Preschool,37.875778,-122.300515,San Francisco,"{'typepoint': {'type': 'Point', 'coordinates': [37.875778, -122.300515]}}","1450 6th St, Berkeley, CA 94710",Nursery School,9.349240810831057
Child Education Center,37.86846,-122.288459,San Francisco,"{'typepoint': {'type': 'Point', 'coordinates': [37.86846, -122.288459]}}","2100 Browning St (Addison Street), Berkeley, CA 94702",Nursery School,9.359170570278176
Bright Horizons 2nd Generation,37.655173,-122.388881,San Francisco,"{'typepoint': {'type': 'Point', 'coordinates': [37.655173, -122.388881]}}","444 Allerton Ave (at Forbes Blvd.), South San Francisco, CA 94080",Nursery School,9.947805739102462
Shu Ren International,37.870122,-122.285899,San Francisco,"{'typepoint': {'type': 'Point', 'coordinates': [37.870122, -122.285899]}}","1333 University Ave, Berkeley, CA 94702",Nursery School,10.012890309074534
The Model School Comprehensive,37.853575,-122.260603,San Francisco,"{'typepoint': {'type': 'Point', 'coordinates': [37.853575, -122.260603]}}","2330 Prince St (Halcyon Ct), Berkeley, CA 94705",Nursery School,10.195026142700065
Claremont Day Nurseries,37.846663,-122.251732,San Francisco,"{'typepoint': {'type': 'Point', 'coordinates': [37.846663, -122.251732]}}","5830 College Ave (at Chabot Rd.), Oakland, CA 94618",Nursery School,10.343989315769239
Benvenue Childrens House,37.854882,-122.253642,San Francisco,"{'typepoint': {'type': 'Point', 'coordinates': [37.854882, -122.253642]}}","3027 Benvenue Ave, Berkeley, CA 94705",Nursery School,10.92281121742993
Bright Star Montessori School,37.888405,-122.288538,San Francisco,"{'typepoint': {'type': 'Point', 'coordinates': [37.888405, -122.288538]}}","1370 Marin Ave, Albany, CA 94706",Nursery School,11.121746588063234
St John's Child Care Center,37.861163,-122.25307,San Francisco,"{'typepoint': {'type': 'Point', 'coordinates': [37.861163, -122.25307]}}","2727 College Ave, Berkeley, CA 94705",Nursery School,11.156078381957995
Sprouting Seeds Childcare,37.638414,-122.429918,San Francisco,"{'typepoint': {'type': 'Point', 'coordinates': [37.638414, -122.429918]}}","116 Greenwood Dr, South San Francisco, CA 94080",Nursery School,11.420151007092528
Kids Konnect Preschool and Daycare,37.646502,-122.471692,San Francisco,"{'typepoint': {'type': 'Point', 'coordinates': [37.646502, -122.471692]}}","2450 Skyline Dr (Manor Drive), Pacifica, CA 94044",Nursery School,11.489644690235735
The Cottage Playhouse,37.831601,-122.213819,San Francisco,"{'typepoint': {'type': 'Point', 'coordinates': [37.831601, -122.213819]}}","1701 Mountain Blvd, Oakland, CA 94611",Nursery School,11.522160230353
El Cerrito Preschool Co-Op,37.914157,-122.301595,San Francisco,"{'typepoint': {'type': 'Point', 'coordinates': [37.914157, -122.301595]}}","7200 Moeser Ln (Ashby Street), El Cerrito, CA 94530",Nursery School,11.889839412619393
Kensington Nursery School,37.913763,-122.281748,San Francisco,"{'typepoint': {'type': 'Point', 'coordinates': [37.913763, -122.281748]}}","52 Arlington Ave, Kensington, CA 94707",Nursery School,12.080690771148918
Pacifica Co-Op Nursery School,37.635955,-122.482586,San Francisco,"{'typepoint': {'type': 'Point', 'coordinates': [37.635955, -122.482586]}}","548 Carmel Ave (at Lassen Ln), Pacifica, CA 94044",Nursery School,12.5132780907371
Corte Madera Montessori,37.915891,-122.504481,San Francisco,"{'typepoint': {'type': 'Point', 'coordinates': [37.915891, -122.504481]}}","50 El Camino Dr, Corte Madera, CA 94925",Nursery School,12.54146213052389
Happy Hall Schools,37.615033,-122.402774,San Francisco,"{'typepoint': {'type': 'Point', 'coordinates': [37.615033, -122.402774]}}","233 Santa Inez Ave, San Bruno, CA 94066",Nursery School,13.33501298043281
Live Oak School,37.763563,-122.399263,San Francisco,"{'typepoint': {'type': 'Point', 'coordinates': [37.763563, -122.399263]}}","1555 Mariposa St, San Francisco, CA 94107",Elementary School,2.8363069936928302
Daniel Webster Elementary SCHL,37.760539,-122.396075,San Francisco,"{'typepoint': {'type': 'Point', 'coordinates': [37.760539, -122.396075]}}","465 Missouri St (at 20th St), San Francisco, CA 94107",Elementary School,3.2571701329306104
Redding Elementary School,37.789619,-122.419151,San Francisco,"{'typepoint': {'type': 'Point', 'coordinates': [37.789619, -122.419151]}}","1421 Pine St, San Francisco, CA 94109",Elementary School,3.510146231627286
Chinese American International School,37.775275,-122.422111,San Francisco,"{'typepoint': {'type': 'Point', 'coordinates': [37.775275, -122.422111]}}","550 Oak St, San Francisco, CA 94102",Elementary School,3.823601191365142
Garfield Elementary School,37.801965,-122.40676,San Francisco,"{'typepoint': {'type': 'Point', 'coordinates': [37.801965, -122.40676]}}","420 Filbert St, San Francisco, CA 94133",Elementary School,3.961206666935047
Starr King Elementary School,37.75324,-122.399229,San Francisco,"{'typepoint': {'type': 'Point', 'coordinates': [37.75324, -122.399229]}}","1215 Carolina St, San Francisco, CA 94107",Elementary School,4.365057715842243
Sanchez Elementary School,37.763622,-122.430587,San Francisco,"{'typepoint': {'type': 'Point', 'coordinates': [37.763622, -122.430587]}}","325 Sanchez St, San Francisco, CA 94114",Elementary School,4.669943231206401
Creative Arts Charter School,37.779853,-122.435776,San Francisco,"{'typepoint': {'type': 'Point', 'coordinates': [37.779853, -122.435776]}}","1601 Turk St (at Pierce St), San Francisco, CA 94115",Elementary School,4.895097782798824
McKinley Elementary School,37.767045,-122.436236,San Francisco,"{'typepoint': {'type': 'Point', 'coordinates': [37.767045, -122.436236]}}","1025 14th St, San Francisco, CA 94114",Elementary School,4.938325478677396
William L Cobb Dr Elementary School,37.788003,-122.439413,San Francisco,"{'typepoint': {'type': 'Point', 'coordinates': [37.788003, -122.439413]}}","2725 California St (at Divisidero St.), San Francisco, CA 94115",Elementary School,5.010652437415645
Town School For Boys,37.791926,-122.440219,San Francisco,"{'typepoint': {'type': 'Point', 'coordinates': [37.791926, -122.440219]}}","2750 Jackson St (btwn Divisadero & Scott St), San Francisco, CA 94115",Elementary School,5.125844761847111
Alvarado Elementary School,37.753778,-122.438388,San Francisco,"{'typepoint': {'type': 'Point', 'coordinates': [37.753778, -122.438388]}}","625 Douglass St (at 22nd St.), San Francisco, CA 94114",Elementary School,5.2474353302000445
Paul Revere Elementary School,37.737285,-122.413051,San Francisco,"{'typepoint': {'type': 'Point', 'coordinates': [37.737285, -122.413051]}}","555 Tompkins Ave, San Francisco, CA 94110",Elementary School,6.557480762626396
New Traditions Elementary School,37.774136,-122.450272,San Francisco,"{'typepoint': {'type': 'Point', 'coordinates': [37.774136, -122.450272]}}","2049 Grove St (at Cole), San Francisco, CA 94117",Elementary School,6.675942271450695
Claire Lilienthal Alt Elem,37.803223,-122.443254,San Francisco,"{'typepoint': {'type': 'Point', 'coordinates': [37.803223, -122.443254]}}","3630 Divisadero St (at Beach St), San Francisco, CA 94123",Elementary School,6.7516221357719575
NOPA Montessori,37.773463,-122.451379,San Francisco,"{'typepoint': {'type': 'Point', 'coordinates': [37.773463, -122.451379]}}","2114 Hayes St, San Francisco, CA 94117",Elementary School,6.759589358914214
Grattan Elementary School,37.76329,-122.450703,San Francisco,"{'typepoint': {'type': 'Point', 'coordinates': [37.76329, -122.450703]}}","165 Grattan St (at Shrader Street), San Francisco, CA 94117",Elementary School,6.88083654217395
Alta Vista School,37.725785,-122.407429,San Francisco,"{'typepoint': {'type': 'Point', 'coordinates': [37.725785, -122.407429]}}","450 Somerset St, San Francisco, CA 94134",Elementary School,6.986850109136493
Clarendon Alternative Elementary School,37.75348,-122.456354,San Francisco,"{'typepoint': {'type': 'Point', 'coordinates': [37.75348, -122.456354]}}","500 Clarendon Ave, San Francisco, CA 94131",Elementary School,6.957791442976991
San Francisco Community Alt,37.725946,-122.432298,San Francisco,"{'typepoint': {'type': 'Point', 'coordinates': [37.725946, -122.432298]}}","125 Excelsior Ave, San Francisco, CA 94112",Elementary School,7.5211827257585275
Cleveland Elementary School,37.720513,-122.428968,San Francisco,"{'typepoint': {'type': 'Point', 'coordinates': [37.720513, -122.428968]}}","455 Athens St, San Francisco, CA 94112",Elementary School,7.670302050859629
Sunnyside Elementary School,37.730384,-122.448607,San Francisco,"{'typepoint': {'type': 'Point', 'coordinates': [37.730384, -122.448607]}}","250 Foerster St (at Hearst Ave.), San Francisco, CA 94112",Elementary School,7.957773502794477
Argonne Elementary School,37.775318,-122.476569,San Francisco,"{'typepoint': {'type': 'Point', 'coordinates': [37.775318, -122.476569]}}","680 18th Ave (at Cabrillo St), San Francisco, CA 94121",Elementary School,8.109752534106367
West Portal Elementary School,37.743445,-122.464497,San Francisco,"{'typepoint': {'type': 'Point', 'coordinates': [37.743445, -122.464497]}}","5 Lenox Way (at Taraval), San Francisco, CA 94127",Elementary School,8.322854685155145
Lawton Alternative K-8 School,37.75794,-122.489287,San Francisco,"{'typepoint': {'type': 'Point', 'coordinates': [37.75794, -122.489287]}}","1570 31st Ave (at Lawton St), San Francisco, CA 94122",Elementary School,8.28619179157727
St Stephen Catholic School San Francisco,37.730934,-122.477648,San Francisco,"{'typepoint': {'type': 'Point', 'coordinates': [37.730934, -122.477648]}}","451 Eucalyptus Dr, San Francisco, CA 94132",Elementary School,8.459279000956993
Lafayette Elementary School,37.777411,-122.496899,San Francisco,"{'typepoint': {'type': 'Point', 'coordinates': [37.777411, -122.496899]}}","4545 Anza St (at 37th Ave), San Francisco, CA 94121",Elementary School,8.526783638701588
Lakeshore Alternative Elementary School,37.730428,-122.485926,San Francisco,"{'typepoint': {'type': 'Point', 'coordinates': [37.730428, -122.485926]}}","220 Middlefield Dr (at Eucalyptus Dr), San Francisco, CA 94132",Elementary School,8.480025636876222
The Brandeis School of San Francisco,37.713325,-122.475453,San Francisco,"{'typepoint': {'type': 'Point', 'coordinates': [37.713325, -122.475453]}}","655 Brotherhood Way (at Summit Way), San Francisco, CA 94132",Elementary School,8.68726802722075
Reed Elementary School,37.881529,-122.464764,San Francisco,"{'typepoint': {'type': 'Point', 'coordinates': [37.881529, -122.464764]}}","1199 Tiburon Blvd, Tiburon, CA 94920",Elementary School,8.669203228294222
Park Day School,37.83143,-122.257532,San Francisco,"{'typepoint': {'type': 'Point', 'coordinates': [37.83143, -122.257532]}}","360 42nd St (Opal), Oakland, CA 94609",Elementary School,8.91287623476743
Emerson Elementary School,37.834417,-122.258206,San Francisco,"{'typepoint': {'type': 'Point', 'coordinates': [37.834417, -122.258206]}}","4803 Lawton Ave, Oakland, CA 94609",Elementary School,9.036329015567846
Cleveland Elementary School,37.804093,-122.2439,San Francisco,"{'typepoint': {'type': 'Point', 'coordinates': [37.804093, -122.2439]}}","745 Cleveland St (at Montclair Ave.), Oakland, CA 94606",Elementary School,9.159030448570087
The Berkeley School,37.869543,-122.286224,San Francisco,"{'typepoint': {'type': 'Point', 'coordinates': [37.869543, -122.286224]}}","1310 University Ave, Berkeley, CA 94702",Elementary School,9.27972377183028
Daniel Webster Elementary School,37.677554,-122.477333,San Francisco,"{'typepoint': {'type': 'Point', 'coordinates': [37.677554, -122.477333]}}","425 El Dorado Dr, Daly City, CA 94015",Elementary School,9.388682226241798
All Souls Catholic School,37.657254,-122.41528,San Francisco,"{'typepoint': {'type': 'Point', 'coordinates': [37.657254, -122.41528]}}","479 Miller Ave (Spruce), South San Francisco, CA 94080",Elementary School,10.533967874264253
Edison Elementary School,37.764541,-122.234813,San Francisco,"{'typepoint': {'type': 'Point', 'coordinates': [37.764541, -122.234813]}}","2700 Buena Vista Ave, Alameda, CA 94501",Elementary School,10.651221526979509
Earhart Elementary School,37.744691,-122.237979,San Francisco,"{'typepoint': {'type': 'Point', 'coordinates': [37.744691, -122.237979]}}","400 Packet Landing Rd, Alameda, CA 94502",Elementary School,11.299355323090648
Lazear Elementary School,37.775679,-122.231864,San Francisco,"{'typepoint': {'type': 'Point', 'coordinates': [37.775679, -122.231864]}}","824 29th Ave (at E 9th St.), Oakland, CA 94601",Elementary School,11.351335613638737
Shu Ren International,37.870122,-122.285899,San Francisco,"{'typepoint': {'type': 'Point', 'coordinates': [37.870122, -122.285899]}}","1333 University Ave, Berkeley, CA 94702",Elementary School,11.53913737593508
Buri Buri Elementary School,37.655887,-122.445624,San Francisco,"{'typepoint': {'type': 'Point', 'coordinates': [37.655887, -122.445624]}}","120 El Campo Dr (at Indio Dr), South San Francisco, CA 94080",Elementary School,11.688262559761789
Havens Elementary,37.825348,-122.233205,San Francisco,"{'typepoint': {'type': 'Point', 'coordinates': [37.825348, -122.233205]}}","323 Highland Ave, Piedmont, CA 94611",Elementary School,11.696405507435832
Marin Elementary School,37.888113,-122.28809,San Francisco,"{'typepoint': {'type': 'Point', 'coordinates': [37.888113, -122.28809]}}","1001 Santa Fe Ave, Albany, CA 94706",Elementary School,11.706997809300464
Chabot Elementary School,37.850202,-122.242889,San Francisco,"{'typepoint': {'type': 'Point', 'coordinates': [37.850202, -122.242889]}}","6686 Chabot Rd, Oakland, CA 94618",Elementary School,11.83820164969532
Thousand Oaks Elementary School,37.892466,-122.280586,San Francisco,"{'typepoint': {'type': 'Point', 'coordinates': [37.892466, -122.280586]}}","840 Colusa Ave (btw San Pedro & Catalina), Berkeley, CA 94707",Elementary School,11.820645005318143
Tamalpais Valley Elementary School,37.874053,-122.527712,San Francisco,"{'typepoint': {'type': 'Point', 'coordinates': [37.874053, -122.527712]}}","350 Bell Ln, Mill Valley, CA 94941",Elementary School,11.885045227795727
Bel Aire Elementary School,37.903144,-122.496758,San Francisco,"{'typepoint': {'type': 'Point', 'coordinates': [37.903144, -122.496758]}}","277 Karen Way, Tiburon, CA 94920",Elementary School,12.317880847119064
Cragmont Elementary School,37.894087,-122.267752,San Francisco,"{'typepoint': {'type': 'Point', 'coordinates': [37.894087, -122.267752]}}","830 Regal Rd, Berkeley, CA 94708",Elementary School,12.403553573665102
Monte Verde Elementary,37.636386,-122.45177,San Francisco,"{'typepoint': {'type': 'Point', 'coordinates': [37.636386, -122.45177]}}","2551 Saint Cloud Dr (at Shannon Dr), San Bruno, CA 94066",Elementary School,12.693777705296498
Belle Air School,37.624103,-122.40524,San Francisco,"{'typepoint': {'type': 'Point', 'coordinates': [37.624103, -122.40524]}}","450 3rd Ave, San Bruno, CA 94066",Elementary School,12.903635106868952
San Francisco Airport,-31.4142,-62.1336,San Francisco,"{'typepoint': {'type': 'Point', 'coordinates': [-31.4142, -62.1336]}}",,Airport,6496.379542684781
San Francisco International Airport,37.61899948120117,-122.375,San Francisco,"{'typepoint': {'type': 'Point', 'coordinates': [37.61899948120117, -122.375]}}",,Airport,5860.177409700864
Camotes Airstrip,10.65955,124.37011,San Francisco,"{'typepoint': {'type': 'Point', 'coordinates': [10.65955, 124.37011]}}",,Airport,5864.933732328821
San Francisco Airport,-12.532999992370604,-73.80000305175781,San Francisco,"{'typepoint': {'type': 'Point', 'coordinates': [-12.532999992370604, -73.80000305175781]}}",,Airport,5864.262821398199
